{"epoch":1784799577,"count":18318,"objects":[{"id":"41335","name":"SENTINEL 3A","type":"PAYLOAD","l1":"1 41335U 16011A   26203.91264515  .00000063  00000-0  43920-4 0  9992","l2":"2 41335  98.6231 270.7797 0001300  87.0308 273.1021 14.26735830543159"},{"id":"43437","name":"SENTINEL 3B","type":"PAYLOAD","l1":"1 43437U 18039A   26203.67541338  .00000064  00000-0  44504-4 0  9993","l2":"2 43437  98.6229 270.6951 0001299 118.4511 241.6800 14.26737900429185"}]}